NORAD_CAT_ID,OBJECT_NAME,OBJECT_TYPE,EPOCH,MEAN_MOTION,ECCENTRICITY,INCLINATION,RA_OF_ASC_NODE,ARG_OF_PERICENTER,MEAN_ANOMALY,BSTAR,MEAN_MOTION_DOT,MEAN_MOTION_DDOT,TLE_LINE0,TLE_LINE1,TLE_LINE2,SEMIMAJOR_AXIS,PERIOD,APOGEE,PERIGEE,DECAYED
49736.0,STARLINK-3148,PAYLOAD,2024-03-05 14:11:54,15.08827964,0.0001087,53.2181,204.499,65.013,295.0975,0.00033071,4.978e-05,0.0,0 STARLINK-3148,1 49736U 21115N   24065.59160501  .00004978  00000-0  33071-3 0  9998,2 49736  53.2181 204.4990 0001087  65.0130 295.0975 15.08827964124712,6917.917,95.438,540.534,539.03,0.0
49736.0,STARLINK-3148,PAYLOAD,2024-03-05 15:47:17,15.08833335,0.0001064,53.2179,204.2018,52.0084,308.1004,0.00022354,3.271e-05,0.0,0 STARLINK-3148,1 49736U 21115N   24065.65784406  .00003271  00000-0  22354-3 0  9998,2 49736  53.2179 204.2018 0001064  52.0084 308.1004 15.08833335125839,6917.901,95.438,540.502,539.03,0.0
49736.0,STARLINK-3148,PAYLOAD,2024-03-06 14:02:40,15.08866132,0.0001287,53.2172,200.0385,67.1067,293.0061,-3.8411e-05,-9e-06,0.0,0 STARLINK-3148,1 49736U 21115N   24066.58519257 -.00000900  00000-0 -38411-4 0  9991,2 49736  53.2172 200.0385 0001287  67.1067 293.0061 15.08866132124866,6917.801,95.436,540.556,538.775,0.0
49736.0,STARLINK-3148,PAYLOAD,2024-03-06 15:38:04,15.0885134,0.0001247,53.2178,199.7414,66.2814,293.8309,3.8064e-05,3.18e-06,0.0,0 STARLINK-3148,1 49736U 21115N   24066.65143777  .00000318  00000-0  38064-4 0  9994,2 49736  53.2178 199.7414 0001247  66.2814 293.8309 15.08851340125987,6917.846,95.437,540.573,538.848,0.0
49736.0,STARLINK-3148,PAYLOAD,2024-03-07 13:53:29,15.08833067,0.0001414,53.2179,195.5793,90.5281,269.5873,2.1643e-05,5.6e-07,0.0,0 STARLINK-3148,1 49736U 21115N   24067.57880924  .00000056  00000-0  21643-4 0  9992,2 49736  53.2179 195.5793 0001414  90.5281 269.5873 15.08833067125012,6917.902,95.438,540.745,538.788,0.0
49736.0,STARLINK-3148,PAYLOAD,2024-03-08 12:08:52,15.08848668,0.0001249,53.2181,191.4185,89.3679,270.7456,0.00010643,1.407e-05,0.0,0 STARLINK-3148,1 49736U 21115N   24068.50615756  .00001407  00000-0  10643-3 0  9993,2 49736  53.2181 191.4185 0001249  89.3679 270.7456 15.08848668126260,6917.854,95.437,540.583,538.855,0.0
49736.0,STARLINK-3148,PAYLOAD,2024-03-08 15:19:37,15.08856034,0.0001302,53.2178,190.8228,88.0636,272.0505,0.00015188,2.131e-05,0.0,0 STARLINK-3148,1 49736U 21115N   24068.63863063  .00002131  00000-0  15188-3 0  9997,2 49736  53.2178 190.8228 0001302  88.0636 272.0505 15.08856034126284,6917.831,95.437,540.597,538.796,0.0
49736.0,STARLINK-3148,PAYLOAD,2024-03-09 00:51:58,15.08831982,0.0001829,53.218,189.0376,93.2151,266.905,6.2831e-05,7.12e-06,0.0,0 STARLINK-3148,1 49736U 21115N   24069.03608871  .00000712  00000-0  62831-4 0  9997,2 49736  53.2180 189.0376 0001829  93.2151 266.9050 15.08831982126344,6917.905,95.438,541.035,538.505,0.0
49736.0,STARLINK-3148,PAYLOAD,2024-03-09 11:59:39,15.08835895,0.0001652,53.2174,186.957,90.4435,269.6746,6.416e-05,7.33e-06,0.0,0 STARLINK-3148,1 49736U 21115N   24069.49976818  .00000733  00000-0  64160-4 0  9996,2 49736  53.2174 186.9570 0001652  90.4435 269.6746 15.08835895125301,6917.893,95.438,540.901,538.615,0.0
49736.0,STARLINK-3148,PAYLOAD,2024-03-09 16:45:49,15.0883676,0.0001597,53.2167,186.0636,84.5067,275.6107,6.3292e-05,7.19e-06,0.0,0 STARLINK-3148,1 49736U 21115N   24069.69848765  .00000719  00000-0  63292-4 0  9996,2 49736  53.2167 186.0636 0001597  84.5067 275.6107 15.08836760125333,6917.89,95.438,540.86,538.651,0.0
49736.0,STARLINK-3148,PAYLOAD,2024-03-10 11:50:26,15.08847771,0.0001641,53.2153,182.494,86.3878,273.7302,-1.5977e-05,-5.42e-06,0.0,0 STARLINK-3148,1 49736U 21115N   24070.49336264 -.00000542  00000-0 -15977-4 0  9995,2 49736  53.2153 182.4940 0001641  86.3878 273.7302 15.08847771126562,6917.857,95.437,540.857,538.586,0.0
49736.0,STARLINK-3148,PAYLOAD,2024-03-10 16:36:35,15.08858398,0.000242,53.2151,181.6016,105.1271,254.9989,-0.00013606,-2.454e-05,0.0,0 STARLINK-3148,1 49736U 21115N   24070.69207755 -.00002454  00000-0 -13606-3 0  9999,2 49736  53.2151 181.6016 0002420 105.1271 254.9989 15.08858398126590,6917.824,95.436,541.363,538.015,0.0
49736.0,STARLINK-3148,PAYLOAD,2024-03-11 13:16:36,15.08838023,0.0001532,53.2138,177.7362,93.4079,266.7088,9.5966e-05,1.24e-05,0.0,0 STARLINK-3148,1 49736U 21115N   24071.55320411  .00001240  00000-0  95966-4 0  9990,2 49736  53.2138 177.7362 0001532  93.4079 266.7088 15.08838023126722,6917.886,95.438,540.811,538.692,0.0
49736.0,STARLINK-3148,PAYLOAD,2024-03-12 16:18:10,15.08816513,0.0001663,53.2134,172.681,104.6709,255.4468,0.00040112,6.098e-05,0.0,0 STARLINK-3148,1 49736U 21115N   24072.67928952  .00006098  00000-0  40112-3 0  9996,2 49736  53.2134 172.6810 0001663 104.6709 255.4468 15.08816513126895,6917.952,95.439,540.968,538.667,0.0
49736.0,STARLINK-3148,PAYLOAD,2024-03-13 00:15:05,15.08837783,0.0001361,53.2138,171.1936,103.1855,256.9289,5.2161e-05,5.42e-06,0.0,0 STARLINK-3148,1 49736U 21115N   24073.01048513  .00000542  00000-0  52161-4 0  9997,2 49736  53.2138 171.1936 0001361 103.1855 256.9289 15.08837783126948,6917.887,95.438,540.694,538.811,0.0
49736.0,STARLINK-3148,PAYLOAD,2024-03-13 11:22:47,15.08858645,0.000174,53.2165,169.1093,104.5036,255.6149,-0.00013807,-2.486e-05,0.0,0 STARLINK-3148,1 49736U 21115N   24073.47415586 -.00002486  00000-0 -13807-3 0  9999,2 49736  53.2165 169.1093 0001740 104.5036 255.6149 15.08858645127016,6917.823,95.436,540.892,538.485,0.0
49736.0,STARLINK-3148,PAYLOAD,2024-03-14 06:27:25,15.08839436,0.0001511,53.2179,165.5416,100.5539,259.5624,4.5596e-05,4.38e-06,0.0,0 STARLINK-3148,1 49736U 21115N   24074.26904553  .00000438  00000-0  45596-4 0  9998,2 49736  53.2179 165.5416 0001511 100.5539 259.5624 15.08839436126028,6917.882,95.438,540.792,538.702,0.0
49736.0,STARLINK-3148,PAYLOAD,2024-03-14 11:13:34,15.08841023,0.0001506,53.2177,164.6504,95.3477,264.7687,4.8974e-05,4.92e-06,0.0,0 STARLINK-3148,1 49736U 21115N   24074.46776439  .00000492  00000-0  48974-4 0  9993,2 49736  53.2177 164.6504 0001506  95.3477 264.7687 15.08841023127168,6917.877,95.437,540.784,538.7,0.0
49736.0,STARLINK-3148,PAYLOAD,2024-03-15 04:42:50,15.08833704,0.0001479,53.2182,161.3847,73.6737,286.4418,2.1385e-05,5.2e-07,0.0,0 STARLINK-3148,1 49736U 21115N   24075.19641246  .00000052  00000-0  21385-4 0  9990,2 49736  53.2182 161.3847 0001479  73.6737 286.4418 15.08833704127277,6917.9,95.438,540.788,538.741,0.0
49736.0,STARLINK-3148,PAYLOAD,2024-03-15 11:04:22,15.08835355,0.0001422,53.2181,160.1952,81.4337,278.6816,7.7833e-06,-1.64e-06,0.0,0 STARLINK-3148,1 49736U 21115N   24075.46137201 -.00000164  00000-0  77833-5 0  9996,2 49736  53.2181 160.1952 0001422  81.4337 278.6816 15.08835355126202,6917.895,95.438,540.743,538.776,0.0
49736.0,STARLINK-3148,PAYLOAD,2024-03-16 10:55:11,15.08821063,0.0001585,53.2179,155.7334,106.7101,253.4065,-7.919e-05,-1.547e-05,0.0,0 STARLINK-3148,1 49736U 21115N   24076.45498873 -.00001547  00000-0 -79190-4 0  9995,2 49736  53.2179 155.7334 0001585 106.7101 253.4065 15.08821063127460,6917.938,95.439,540.9,538.707,0.0
49736.0,STARLINK-3148,PAYLOAD,2024-03-17 04:24:25,15.08837878,0.0001414,53.2161,152.4558,110.2036,249.9108,-4.6267e-05,-1.024e-05,0.0,0 STARLINK-3148,1 49736U 21115N   24077.18362363 -.00001024  00000-0 -46267-4 0  9999,2 49736  53.2161 152.4558 0001414 110.2036 249.9108 15.08837878127572,6917.887,95.438,540.73,538.774,0.0
49736.0,STARLINK-3148,PAYLOAD,2024-03-17 12:21:20,15.0883963,0.000168,53.2179,150.9792,71.6282,288.4893,0.00014335,1.994e-05,0.0,0 STARLINK-3148,1 49736U 21115N   24077.51481713  .00001994  00000-0  14335-3 0  9991,2 49736  53.2179 150.9792 0001680  71.6282 288.4893 15.08839630127625,6917.882,95.438,540.909,538.584,0.0
49736.0,STARLINK-3148,PAYLOAD,2024-03-18 12:12:07,15.08830625,0.0001538,53.2177,146.518,61.1515,298.9631,0.00032728,4.923e-05,0.0,0 STARLINK-3148,1 49736U 21115N   24078.50841799  .00004923  00000-0  32728-3 0  9996,2 49736  53.2177 146.5180 0001538  61.1515 298.9631 15.08830625126664,6917.909,95.438,540.838,538.71,0.0
49736.0,STARLINK-3148,PAYLOAD,2024-03-19 10:27:31,15.08847813,0.0001895,53.2174,142.3543,64.4515,295.6673,-5.2003e-06,-3.71e-06,0.0,0 STARLINK-3148,1 49736U 21115N   24079.43577573 -.00000371  00000-0 -52003-5 0  9990,2 49736  53.2174 142.3543 0001895  64.4515 295.6673 15.08847813126803,6917.857,95.437,541.032,538.411,0.0
49736.0,STARLINK-3148,PAYLOAD,2024-03-20 10:18:17,15.08842514,0.0001768,53.216,137.8934,71.0425,289.0758,1.2624e-05,-8.7e-07,0.0,0 STARLINK-3148,1 49736U 21115N   24080.42937499 -.00000087  00000-0  12624-4 0  9995,2 49736  53.2160 137.8934 0001768  71.0425 289.0758 15.08842514128068,6917.873,95.437,540.961,538.515,0.0
49736.0,STARLINK-3148,PAYLOAD,2024-03-21 13:19:50,15.08847268,0.0001829,53.2163,132.8343,100.0259,260.094,4.3311e-05,4.01e-06,0.0,0 STARLINK-3148,1 49736U 21115N   24081.55544916  .00000401  00000-0  43311-4 0  9994,2 49736  53.2163 132.8343 0001829 100.0259 260.0940 15.08847268127125,6917.858,95.437,540.988,538.458,0.0
49736.0,STARLINK-3148,PAYLOAD,2024-03-22 09:59:51,15.08847329,0.00018,53.2166,128.9657,105.4152,254.7039,4.9928e-05,5.07e-06,0.0,0 STARLINK-3148,1 49736U 21115N   24082.41656853  .00000507  00000-0  49928-4 0  9991,2 49736  53.2166 128.9657 0001800 105.4152 254.7039 15.08847329127253,6917.858,95.437,540.968,538.478,0.0
49736.0,STARLINK-3148,PAYLOAD,2024-03-23 03:29:07,15.08832855,0.0001664,53.2161,125.6944,88.494,271.6243,-4.7787e-05,-1.048e-05,0.0,0 STARLINK-3148,1 49736U 21115N   24083.14522438 -.00001048  00000-0 -47787-4 0  9997,2 49736  53.2161 125.6944 0001664  88.4940 271.6243 15.08832855128472,6917.902,95.438,540.918,538.616,0.0
49736.0,STARLINK-3148,PAYLOAD,2024-03-23 19:22:58,15.08839735,0.0001572,53.217,122.7275,92.9549,267.1623,-8.0694e-06,-4.16e-06,0.0,0 STARLINK-3148,1 49736U 21115N   24083.80762144 -.00000416  00000-0 -80694-5 0  9993,2 49736  53.2170 122.7275 0001572  92.9549 267.1623 15.08839735128577,6917.881,95.438,540.834,538.659,0.0
